NORAD_CAT_ID,OBJECT_NAME,OBJECT_TYPE,EPOCH,MEAN_MOTION,ECCENTRICITY,INCLINATION,RA_OF_ASC_NODE,ARG_OF_PERICENTER,MEAN_ANOMALY,BSTAR,MEAN_MOTION_DOT,MEAN_MOTION_DDOT,TLE_LINE0,TLE_LINE1,TLE_LINE2,SEMIMAJOR_AXIS,PERIOD,APOGEE,PERIGEE,DECAYED
52479.0,STARLINK-3878,PAYLOAD,2023-12-27 10:05:23,15.0884256,0.0001618,53.2179,55.1373,100.4603,259.6571,0.00010855,1.44e-05,0.0,0 STARLINK-3878,1 52479U 22049AE  23361.42041535  .00001440  00000-0  10855-3 0  9994,2 52479  53.2179  55.1373 0001618 100.4603 259.6571 15.08842560 91284,6917.873,95.437,540.857,538.618,0.0
52479.0,STARLINK-3878,PAYLOAD,2023-12-27 13:16:09,15.08852597,0.0001469,53.2175,54.5403,104.1597,255.9558,0.00011028,1.468e-05,0.0,0 STARLINK-3878,1 52479U 22049AE  23361.55288820  .00001468  00000-0  11028-3 0  9991,2 52479  53.2175  54.5403 0001469 104.1597 255.9558 15.08852597 92381,6917.842,95.437,540.723,538.691,0.0
52479.0,STARLINK-3878,PAYLOAD,2023-12-28 03:34:38,15.08832159,0.0001372,53.2184,51.8663,91.8904,268.2245,0.00011388,1.525e-05,0.0,0 STARLINK-3878,1 52479U 22049AE  23362.14906171  .00001525  00000-0  11388-3 0  9996,2 52479  53.2184  51.8663 0001372  91.8904 268.2245 15.08832159 91398,6917.904,95.438,540.718,538.82,0.0
52479.0,STARLINK-3878,PAYLOAD,2023-12-28 09:56:11,15.08837511,0.000159,53.2182,50.6775,86.3034,273.814,0.00015981,2.256e-05,0.0,0 STARLINK-3878,1 52479U 22049AE  23362.41402002  .00002256  00000-0  15981-3 0  9995,2 52479  53.2182  50.6775 0001590  86.3034 273.8140 15.08837511 92510,6917.888,95.438,540.853,538.653,0.0
52479.0,STARLINK-3878,PAYLOAD,2023-12-29 09:46:58,15.08842584,0.0001639,53.2191,46.2174,96.5808,263.537,-1.5008e-05,-5.27e-06,0.0,0 STARLINK-3878,1 52479U 22049AE  23363.40762181 -.00000527  00000-0 -15008-4 0  9994,2 52479  53.2191  46.2174 0001639  96.5808 263.5370 15.08842584 91583,6917.872,95.437,540.871,538.604,0.0
52479.0,STARLINK-3878,PAYLOAD,2023-12-30 12:48:31,15.08849385,0.0001632,53.2179,41.1599,93.3034,266.8145,0.00014647,2.044e-05,0.0,0 STARLINK-3878,1 52479U 22049AE  23364.53369271  .00002044  00000-0  14647-3 0  9993,2 52479  53.2179  41.1599 0001632  93.3034 266.8145 15.08849385 92834,6917.852,95.437,540.846,538.588,0.0
52479.0,STARLINK-3878,PAYLOAD,2023-12-31 03:07:00,15.08830937,0.0001407,53.2162,38.4788,93.9164,266.1989,1.2143e-05,-9.5e-07,0.0,0 STARLINK-3878,1 52479U 22049AE  23365.12986865 -.00000095  00000-0  12143-4 0  9998,2 52479  53.2162  38.4788 0001407  93.9164 266.1989 15.08830937 91847,6917.908,95.438,540.746,538.8,0.0
52479.0,STARLINK-3878,PAYLOAD,2023-12-31 07:53:10,15.08832686,0.0001487,53.2164,37.5874,93.9814,266.1348,2.7501e-05,1.5e-06,0.0,0 STARLINK-3878,1 52479U 22049AE  23365.32858868  .00000150  00000-0  27501-4 0  9996,2 52479  53.2164  37.5874 0001487  93.9814 266.1348 15.08832686 92950,6917.903,95.438,540.796,538.739,0.0
52479.0,STARLINK-3878,PAYLOAD,2024-01-01 10:54:42,15.08848526,0.0001482,53.2173,32.5345,89.2142,270.902,1.3461e-05,-7.4e-07,0.0,0 STARLINK-3878,1 52479U 22049AE  24001.45466212 -.00000074  00000-0  13461-4 0  9992,2 52479  53.2173  32.5345 0001482  89.2142 270.9020 15.08848526 92045,6917.854,95.437,540.745,538.694,0.0
52479.0,STARLINK-3878,PAYLOAD,2024-01-01 12:30:05,15.08847933,0.0001627,53.2179,32.2394,104.6483,255.469,1.7101e-05,-1.6e-07,0.0,0 STARLINK-3878,1 52479U 22049AE  24001.52090194 -.00000016  00000-0  17101-4 0  9993,2 52479  53.2179  32.2394 0001627 104.6483 255.4690 15.08847933 93136,6917.856,95.437,540.847,538.596,0.0
52479.0,STARLINK-3878,PAYLOAD,2024-01-02 01:13:11,15.08835756,0.0001653,53.2178,29.8604,98.2924,261.8255,0.00014189,1.971e-05,0.0,0 STARLINK-3878,1 52479U 22049AE  24002.05082855  .00001971  00000-0  14189-3 0  9999,2 52479  53.2178  29.8604 0001653  98.2924 261.8255 15.08835756 92135,6917.893,95.438,540.902,538.615,0.0
52479.0,STARLINK-3878,PAYLOAD,2024-01-02 09:10:07,15.08841891,0.0001615,53.2178,28.3735,92.7627,267.355,0.00019529,2.822e-05,0.0,0 STARLINK-3878,1 52479U 22049AE  24002.38202603  .00002822  00000-0  19529-3 0  9999,2 52479  53.2178  28.3735 0001615  92.7627 267.3550 15.08841891 93262,6917.875,95.437,540.857,538.622,0.0
52479.0,STARLINK-3878,PAYLOAD,2024-01-03 10:36:17,15.0884262,0.0001728,53.2186,23.6161,82.6373,277.4815,6.4198e-05,7.34e-06,0.0,0 STARLINK-3878,1 52479U 22049AE  24003.44187028  .00000734  00000-0  64198-4 0  9993,2 52479  53.2186  23.6161 0001728  82.6373 277.4815 15.08842620 92348,6917.872,95.437,540.933,538.542,0.0
52479.0,STARLINK-3878,PAYLOAD,2024-01-04 05:40:55,15.08845399,0.0001664,53.2185,20.0486,73.7031,286.4144,9.4131e-05,1.211e-05,0.0,0 STARLINK-3878,1 52479U 22049AE  24004.23674784  .00001211  00000-0  94131-4 0  9992,2 52479  53.2185  20.0486 0001664  73.7031 286.4144 15.08845399 93543,6917.864,95.437,540.88,538.578,0.0
52479.0,STARLINK-3878,PAYLOAD,2024-01-05 03:56:19,15.08841238,0.0001472,53.218,15.8867,88.4384,271.6777,4.4794e-05,4.25e-06,0.0,0 STARLINK-3878,1 52479U 22049AE  24005.16411098  .00000425  00000-0  44794-4 0  9998,2 52479  53.2180  15.8867 0001472  88.4384 271.6777 15.08841238 92606,6917.877,95.437,540.76,538.723,0.0
52479.0,STARLINK-3878,PAYLOAD,2024-01-05 07:07:05,15.08839514,0.0001704,53.2187,15.2908,114.9492,245.1677,-2.5398e-06,-3.28e-06,0.0,0 STARLINK-3878,1 52479U 22049AE  24005.29659151 -.00000328  00000-0 -25398-5 0  9990,2 52479  53.2187  15.2908 0001704 114.9492 245.1677 15.08839514 93707,6917.882,95.438,540.926,538.568,0.0
52479.0,STARLINK-3878,PAYLOAD,2024-01-06 03:47:03,15.08857761,0.0002916,53.2189,11.4241,139.5768,220.5441,0.00014822,2.072e-05,0.0,0 STARLINK-3878,1 52479U 22049AE  24006.15768275  .00002072  00000-0  14822-3 0  9998,2 52479  53.2189  11.4241 0002916 139.5768 220.5441 15.08857761 92756,6917.826,95.436,541.708,537.674,0.0
52479.0,STARLINK-3878,PAYLOAD,2024-01-06 10:08:38,15.0883105,0.0001472,53.2182,10.235,107.1166,252.9987,-8.6307e-05,-1.661e-05,0.0,0 STARLINK-3878,1 52479U 22049AE  24006.42266983 -.00001661  00000-0 -86307-4 0  9990,2 52479  53.2182  10.2350 0001472 107.1166 252.9987 15.08831050 92797,6917.908,95.438,540.791,538.754,0.0
52479.0,STARLINK-3878,PAYLOAD,2024-01-07 05:13:16,15.08836745,0.0001349,53.2179,6.6658,103.053,257.0612,1.4412e-05,-5.9e-07,0.0,0 STARLINK-3878,1 52479U 22049AE  24007.21754724 -.00000059  00000-0  14412-4 0  9990,2 52479  53.2179   6.6658 0001349 103.0530 257.0612 15.08836745 92917,6917.89,95.438,540.689,538.822,0.0
52479.0,STARLINK-3878,PAYLOAD,2024-01-07 22:42:29,15.08871954,0.0001456,53.218,3.3944,112.1555,247.9592,-0.00044267,-7.332e-05,0.0,0 STARLINK-3878,1 52479U 22049AE  24007.94617565 -.00007332  00000-0 -44267-3 0  9993,2 52479  53.2180   3.3944 0001456 112.1555 247.9592 15.08871954 94107,6917.783,95.436,540.655,538.64,0.0
52479.0,STARLINK-3878,PAYLOAD,2024-01-08 03:28:38,15.08873443,0.0001382,53.2181,2.5022,95.3105,264.8045,-0.00040999,-6.813e-05,0.0,0 STARLINK-3878,1 52479U 22049AE  24008.14489001 -.00006813  00000-0 -40999-3 0  9999,2 52479  53.2181   2.5022 0001382  95.3105 264.8045 15.08873443 93056,6917.778,95.435,540.599,538.687,0.0
52479.0,STARLINK-3878,PAYLOAD,2024-01-08 08:14:48,15.08855452,0.0001431,53.2174,1.6102,95.433,264.6825,-8.1668e-05,-1.588e-05,0.0,0 STARLINK-3878,1 52479U 22049AE  24008.34361262 -.00001588  00000-0 -81668-4 0  9992,2 52479  53.2174   1.6102 0001431  95.4330 264.6825 15.08855452 93080,6917.833,95.437,540.688,538.708,0.0
52479.0,STARLINK-3878,PAYLOAD,2024-01-09 04:54:50,15.08835077,0.0001429,53.2168,357.744,86.847,273.2686,7.7332e-05,9.43e-06,0.0,0 STARLINK-3878,1 52479U 22049AE  24009.20474983  .00000943  00000-0  77332-4 0  9998,2 52479  53.2168 357.7440 0001429  86.8470 273.2686 15.08835077 93216,6917.895,95.438,540.749,538.772,0.0
52479.0,STARLINK-3878,PAYLOAD,2024-01-09 08:05:36,15.08840343,0.0001467,53.2172,357.1495,94.7793,265.3366,0.00017621,2.518e-05,0.0,0 STARLINK-3878,1 52479U 22049AE  24009.33722819  .00002518  00000-0  17621-3 0  9990,2 52479  53.2172 357.1495 0001467  94.7793 265.3366 15.08840343 94314,6917.879,95.438,540.759,538.729,0.0
52479.0,STARLINK-3878,PAYLOAD,2024-01-09 22:24:04,15.08838151,0.0001535,53.2177,354.4737,96.6387,263.478,7.6831e-05,9.35e-06,0.0,0 STARLINK-3878,1 52479U 22049AE  24009.93339027  .00000935  00000-0  76831-4 0  9991,2 52479  53.2177 354.4737 0001535  96.6387 263.4780 15.08838151 94407,6917.886,95.438,540.813,538.689,0.0
52479.0,STARLINK-3878,PAYLOAD,2024-01-10 07:56:23,15.08845095,0.0001531,53.2172,352.6888,103.7654,256.3508,0.00025076,3.706e-05,0.0,0 STARLINK-3878,1 52479U 22049AE  24010.33082859  .00003706  00000-0  25076-3 0  9998,2 52479  53.2172 352.6888 0001531 103.7654 256.3508 15.08845095 93382,6917.865,95.437,540.789,538.671,0.0
52479.0,STARLINK-3878,PAYLOAD,2024-01-11 04:36:24,15.08844016,0.0001883,53.2167,348.8207,131.444,228.6714,0.00019102,2.754e-05,0.0,0 STARLINK-3878,1 52479U 22049AE  24011.19194858  .00002754  00000-0  19102-3 0  9991,2 52479  53.2167 348.8207 0001883 131.4440 228.6714 15.08844016 93517,6917.868,95.437,541.036,538.43,0.0
52479.0,STARLINK-3878,PAYLOAD,2024-01-11 06:11:47,15.0884635,0.0001555,53.2169,348.5249,102.9348,257.1818,0.00028157,4.197e-05,0.0,0 STARLINK-3878,1 52479U 22049AE  24011.25819310  .00004197  00000-0  28157-3 0  9998,2 52479  53.2169 348.5249 0001555 102.9348 257.1818 15.08846350 94604,6917.861,95.437,540.802,538.65,0.0
52479.0,STARLINK-3878,PAYLOAD,2024-01-11 22:05:39,15.08842784,0.0001509,53.2179,345.5534,102.3432,257.7729,0.0001609,2.274e-05,0.0,0 STARLINK-3878,1 52479U 22049AE  24011.92059546  .00002274  00000-0  16090-3 0  9996,2 52479  53.2179 345.5534 0001509 102.3432 257.7729 15.08842784 94701,6917.872,95.437,540.781,538.693,0.0
52479.0,STARLINK-3878,PAYLOAD,2024-01-12 02:51:48,15.08846217,0.0001448,53.218,344.6617,101.1246,258.9909,0.00021771,3.179e-05,0.0,0 STARLINK-3878,1 52479U 22049AE  24012.11931282  .00003179  00000-0  21771-3 0  9991,2 52479  53.2180 344.6617 0001448 101.1246 258.9909 15.08846217 93658,6917.861,95.437,540.728,538.725,0.0
